NAVSTAR 48 (USA 151)    
1 26407U 00040A   26169.29943163  .00000028  00000+0  00000+0 0  9992
2 26407  54.8512 215.1181 0121029 302.4802  64.4063  2.00557654189970
NAVSTAR 51 (USA 166)    
1 27663U 03005A   26169.16974841  .00000030  00000+0  00000+0 0  9997
2 27663  54.8819 214.9299 0147933  53.0829 356.1720  2.00560488171333
NAVSTAR 54 (USA 177)    
1 28190U 04009A   26168.40442231 -.00000037  00000+0  00000+0 0  9995
2 28190  54.8295 275.6785 0116158 173.0888 196.7015  2.00554656162957
NAVSTAR 56 (USA 180)    
1 28474U 04045A   26169.32272374 -.00000087  00000+0  00000+0 0  9996
2 28474  55.1350 324.8502 0169887 316.4507  61.3171  2.00555864158452
NAVSTAR 57 (USA 183)    
1 28874U 05038A   26168.35669388 -.00000033  00000+0  00000+0 0  9991
2 28874  54.8779 273.1707 0127864 296.1609  67.8202  2.00565592151847
INMARSAT 4-F2           
1 28899U 05044A   26168.99653308 -.00000269  00000+0  00000+0 0  9991
2 28899   5.0971  43.7054 0002854  35.4184 329.3507  1.00270030 75539
NAVSTAR 58 (USA 190)    
1 29486U 06042A   26169.13028664  .00000049  00000+0  00000+0 0  9996
2 29486  54.7109 151.3015 0106649  54.4413  46.6051  2.00569747144416
NAVSTAR 59 (USA 192)    
1 29601U 06052A   26167.42124558  .00000054  00000+0  00000+0 0  9991
2 29601  54.9348 214.0365 0085218  90.8278 270.2339  2.00557832143390
NAVSTAR 60 (USA 196)    
1 32260U 07047A   26167.22762417 -.00000035  00000+0  00000+0 0  9991
2 32260  54.0946  80.1052 0166743  87.3620 274.5508  2.00555202136790
COSMOS 2433 [GLONASS-M] 
1 32275U 07052A   26169.32339618 -.00000055  00000+0  00000+0 0  9991
2 32275  65.5761 315.8954 0002538 193.3913 166.5902  2.13104002145083
COSMOS 2432 [GLONASS-M] 
1 32276U 07052B   26167.51638169 -.00000055  00000+0  00000+0 0  9994
2 32276  65.5946 316.0841 0007678 331.5202  26.0613  2.13103061145065
NAVSTAR 61 (USA 199)    
1 32384U 07062A   26167.53498160 -.00000029  00000+0  00000+0 0  9993
2 32384  55.0322 274.1789 0035702 165.2122 184.0447  2.00560015135492
COSMOS 2434 [GLONASS-M] 
1 32393U 07065A   26168.15492016  .00000065  00000+0  00000+0 0  9998
2 32393  64.3178 191.9169 0001197 336.0402  97.3647  2.13101292143772
COSMOS 2436 [GLONASS-M] 
1 32395U 07065C   26169.05722539  .00000058  00000+0  00000+0 0  9998
2 32395  64.3266 191.9586 0017253 353.8903 184.0416  2.13100047143740
NAVSTAR 62 (USA 201)    
1 32711U 08012A   26169.13324188  .00000048  00000+0  00000+0 0  9999
2 32711  54.4975 149.8869 0211272 247.8593 109.8588  2.00572404133772
NAVSTAR 64 (USA 206)    
1 35752U 09043A   26167.28361034 -.00000073  00000+0  00000+0 0  9996
2 35752  56.2097  27.4871 0053768  83.1336  31.1253  2.00554227123340
COSMOS 2456 [GLONASS-M] 
1 36111U 09070A   26167.15434897 -.00000023  00000+0  00000+0 0  9995
2 36111  65.0107  71.0074 0004648 331.0109 212.9328  2.13103754128409
COSMOS 2457 [GLONASS-M] 
1 36112U 09070B   26169.33231891 -.00000027  00000+0  00000+0 0  9991
2 36112  64.9975  70.7771 0002917 122.0762  60.1336  2.13101036128459
COSMOS 2460 [GLONASS-M] 
1 36402U 10007C   26164.86672859 -.00000052  00000+0  00000+0 0  9999
2 36402  65.4226 314.5793 0002121 106.9290 251.4243  2.13101719126653
NAVSTAR 65 (USA 213)    
1 36585U 10022A   26167.52380442  .00000055  00000+0  00000+0 0  9990
2 36585  54.2702 208.5888 0126308  66.1160 340.2016  2.00562332117589
BEIDOU-2 IGSO-1         
1 36828U 10036A   26168.91794174 -.00000086  00000+0  00000+0 0  9995
2 36828  54.3019 162.9525 0059238 225.3267 315.9903  1.00271928 58109
BEIDOU-2 G4             
1 37210U 10057A   26169.14239784 -.00000120  00000+0  00000+0 0  9990
2 37210   3.6494  68.9384 0005315 196.4016 212.3040  1.00270614 57308
BEIDOU-2 IGSO-2         
1 37256U 10068A   26166.85415660 -.00000214  00000+0  00000+0 0  9990
2 37256  47.5513 271.8488 0055883 212.6776 194.9519  1.00282881 56782
BEIDOU-2 IGSO-3         
1 37384U 11013A   26168.63859422 -.00000188  00000+0  00000+0 0  9999
2 37384  62.4080  40.1465 0034560 184.2780  19.0427  1.00267211 55660
GSAT-8                  
1 37605U 11022A   26169.19287190  .00000078  00000+0  00000+0 0  9991
2 37605   2.1346  81.8127 0002123 199.1293 110.0119  1.00271800 53222
BEIDOU-2 IGSO-4         
1 37763U 11038A   26167.68545095  .00000019  00000+0  00000+0 0  9991
2 37763  54.6000 165.6770 0159519 231.4431 207.9860  1.00285273 54642
GSAT0101 (GALILEO-PFM)  
1 37846U 11060A   26167.84840131 -.00000088  00000+0  00000+0 0  9992
2 37846  56.9944 341.7702 0002996  53.3752 306.6473  1.70475567 91115
GSAT0102 (GALILEO-FM2)  
1 37847U 11060B   26166.59146788 -.00000084  00000+0  00000+0 0  9997
2 37847  56.9958 341.8048 0003167  14.2663 339.9688  1.70475803 91090
COSMOS 2476 [GLONASS-M] 
1 37867U 11064A   26169.14791698 -.00000023  00000+0  00000+0 0  9996
2 37867  65.2703  72.8392 0022690 238.8568 302.8190  2.13103744113784
COSMOS 2477 [GLONASS-M] 
1 37868U 11064B   26168.43725169 -.00000021  00000+0  00000+0 0  9996
2 37868  65.2764  72.9425 0019676 240.1496 296.6640  2.13102918113766
COSMOS 2475 [GLONASS-M] 
1 37869U 11064C   26169.35017350 -.00000024  00000+0  00000+0 0  9998
2 37869  65.2838  72.9333 0025436 253.1799 219.1108  2.13101711113790
